[
    {
      "metar_id": 733758256,
      "icaoId": "KMCI",
      "receiptTime": "2025-04-11 18:56:36",
      "obsTime": 1744397580,
      "reportTime": "2025-04-11 19:00:00",
      "temp": 15.6,
      "dewp": 5,
      "wdir": 20,
      "wspd": 6,
      "wgst": null,
      "visib": "10+",
      "altim": 1025.5,
      "slp": 1025.4,
      "qcField": 4,
      "wxString": null,
      "presTend": null,
      "maxT": null,
      "minT": null,
      "maxT24": null,
      "minT24": null,
      "precip": null,
      "pcp3hr": null,
      "pcp6hr": null,
      "pcp24hr": null,
      "snow": null,
      "vertVis": null,
      "metarType": "METAR",
      "rawOb": "KMCI 111853Z 02006KT 10SM SCT039 16/05 A3028 RMK AO2 SLP254 T01560050",
      "mostRecent": 1,
      "lat": 39.2975,
      "lon": -94.7309,
      "elev": 308,
      "prior": 1,
      "name": "Kansas City Intl, MO, US",
      "clouds": [
        {
          "cover": "SCT",
          "base": 3900
        }
      ]
    },
    {
      "metar_id": 733757042,
      "icaoId": "KORD",
      "receiptTime": "2025-04-11 18:56:16",
      "obsTime": 1744397460,
      "reportTime": "2025-04-11 19:00:00",
      "temp": 10,
      "dewp": -3.3,
      "wdir": 50,
      "wspd": 13,
      "wgst": 21,
      "visib": "10+",
      "altim": 1024.5,
      "slp": 1024.8,
      "qcField": 4,
      "wxString": null,
      "presTend": null,
      "maxT": null,
      "minT": null,
      "maxT24": null,
      "minT24": null,
      "precip": null,
      "pcp3hr": null,
      "pcp6hr": null,
      "pcp24hr": null,
      "snow": null,
      "vertVis": null,
      "metarType": "METAR",
      "rawOb": "KORD 111851Z 05013G21KT 10SM FEW050 10/M03 A3025 RMK AO2 SLP248 T01001033",
      "mostRecent": 1,
      "lat": 41.9602,
      "lon": -87.9316,
      "elev": 202,
      "prior": 0,
      "name": "Chicago/O'Hare Intl, IL, US",
      "clouds": [
        {
          "cover": "FEW",
          "base": 5000
        }
      ]
    },
    {
      "metar_id": 733770711,
      "icaoId": "KBOS",
      "receiptTime": "2025-04-11 19:17:10",
      "obsTime": 1744398720,
      "reportTime": "2025-04-11 19:12:00",
      "temp": 6.1,
      "dewp": 2.8,
      "wdir": 70,
      "wspd": 12,
      "wgst": null,
      "visib": "10+",
      "altim": 1023.8,
      "slp": null,
      "qcField": 4,
      "wxString": null,
      "presTend": null,
      "maxT": null,
      "minT": null,
      "maxT24": null,
      "minT24": null,
      "precip": null,
      "pcp3hr": null,
      "pcp6hr": null,
      "pcp24hr": null,
      "snow": null,
      "vertVis": null,
      "metarType": "SPECI",
      "rawOb": "KBOS 111912Z 07012KT 10SM BKN013 BKN065 06/03 A3023 RMK AO2 T00610028",
      "mostRecent": 1,
      "lat": 42.3606,
      "lon": -71.0097,
      "elev": 4,
      "prior": 2,
      "name": "Boston/Logan Intl, MA, US",
      "clouds": [
        {
          "cover": "BKN",
          "base": 1300
        },
        {
          "cover": "BKN",
          "base": 6500
        }
      ]
    }
  ]